{"type": "FeatureCollection", "features": [ {"type": "Feature", "properties": {"norad_id": 43010, "name": "FENGYUN 3D", "group": "weather", "lat": 25.48761111976437, "lon": -53.062817976332646, "alt_km": 826.109686347153, "timestamp": "2025-12-10T23:33:12.473286+00:00", "meta": {"OBJECT_NAME": "FENGYUN 3D", "OBJECT_ID": "2017-072A", "EPOCH": "2025-12-10T14:58:29.438976", "MEAN_MOTION": 14.19681634, "ECCENTRICITY": 8.194e-05, "INCLINATION": 98.9893, "RA_OF_ASC_NODE": 310.9021, "ARG_OF_PERICENTER": 188.329, "MEAN_ANOMALY": 171.7872, "EPHEMERIS_TYPE": 0, "CLASSIFICATION_TYPE": "U", "NORAD_CAT_ID": 43010, "ELEMENT_SET_NO": 999, "REV_AT_EPOCH": 41823, "BSTAR": 9.703469e-06, "MEAN_MOTION_DOT": -2.5e-07, "MEAN_MOTION_DDOT": 0}, "tle": {"line1": "1 43010U 17072A   25344.62395184 -.00000025  00000+0  97035-5 0  9997", "line2": "2 43010  98.9893 310.9021 0000819 188.3290 171.7872 14.19681634418235"}}, "geometry": {"type": "Point", "coordinates": [-53.062817976332646, 25.48761111976437]}}, {"type": "Feature", "properties": {"norad_id": 43013, "name": "NOAA 20 (JPSS-1)", "group": "weather", "lat": 0.5400427832281561, "lon": 101.38055930734771, "alt_km": 829.8047936841813, "timestamp": "2025-12-10T23:33:12.473295+00:00", "meta": {"OBJECT_NAME": "NOAA 20 (JPSS-1)", "OBJECT_ID": "2017-073A", "EPOCH": "2025-12-10T14:15:11.702880", "MEAN_MOTION": 14.19524842, "ECCENTRICITY": 0.000215, "INCLINATION": 98.7596, "RA_OF_ASC_NODE": 280.9141, "ARG_OF_PERICENTER": 90.2971, "MEAN_ANOMALY": 269.8452, "EPHEMERIS_TYPE": 0, "CLASSIFICATION_TYPE": "U", "NORAD_CAT_ID": 43013, "ELEMENT_SET_NO": 999, "REV_AT_EPOCH": 41771, "BSTAR": 0.00010625452, "MEAN_MOTION_DOT": 1.8e-06, "MEAN_MOTION_DDOT": 0}, "tle": {"line1": "1 43013U 17073A   25344.59388545  .00000180  00000+0  10625-3 0  9999", "line2": "2 43013  98.7596 280.9141 0002150  90.2971 269.8452 14.19524842417714"}}, "geometry": {"type": "Point", "coordinates": [101.38055930734771, 0.5400427832281561]}}, {"type": "Feature", "properties": {"norad_id": 43226, "name": "GOES 17", "group": "weather", "lat": -0.4379830420133183, "lon": -16.211935638193644, "alt_km": 35780.813053889346, "timestamp": "2025-12-10T23:33:12.473306+00:00", "meta": {"OBJECT_NAME": "GOES 17", "OBJECT_ID": "2018-022A", "EPOCH": "2025-12-10T07:27:38.822400", "MEAN_MOTION": 1.00271623, "ECCENTRICITY": 0.00033712, "INCLINATION": 0.4539, "RA_OF_ASC_NODE": 89.1426, "ARG_OF_PERICENTER": 187.0405, "MEAN_ANOMALY": 185.5217, "EPHEMERIS_TYPE": 0, "CLASSIFICATION_TYPE": "U", "NORAD_CAT_ID": 43226, "ELEMENT_SET_NO": 999, "REV_AT_EPOCH": 2853, "BSTAR": 0, "MEAN_MOTION_DOT": -1.79e-06, "MEAN_MOTION_DDOT": 0}, "tle": {"line1": "1 43226U 18022A   25344.31086600 -.00000179  00000+0  00000+0 0  9998", "line2": "2 43226   0.4539  89.1426 0003371 187.0405 185.5217  1.00271623 28538"}}, "geometry": {"type": "Point", "coordinates": [-16.211935638193644, -0.4379830420133183]}}, {"type": "Feature", "properties": {"norad_id": 43491, "name": "FENGYUN 2H", "group": "weather", "lat": 2.4152106721837105, "lon": 152.55937928772883, "alt_km": 35786.88161984251, "timestamp": "2025-12-10T23:33:12.473318+00:00", "meta": {"OBJECT_NAME": "FENGYUN 2H", "OBJECT_ID": "2018-050A", "EPOCH": "2025-12-10T16:18:36.395424", "MEAN_MOTION": 1.00271066, "ECCENTRICITY": 0.00029224, "INCLINATION": 2.5457, "RA_OF_ASC_NODE": 81.3445, "ARG_OF_PERICENTER": 165.3287, "MEAN_ANOMALY": 156.9904, "EPHEMERIS_TYPE": 0, "CLASSIFICATION_TYPE": "U", "NORAD_CAT_ID": 43491, "ELEMENT_SET_NO": 999, "REV_AT_EPOCH": 2754, "BSTAR": 0, "MEAN_MOTION_DOT": -1.25e-06, "MEAN_MOTION_DDOT": 0}, "tle": {"line1": "1 43491U 18050A   25344.67958791 -.00000125  00000+0  00000+0 0  9992", "line2": "2 43491   2.5457  81.3445 0002922 165.3287 156.9904  1.00271066 27543"}}, "geometry": {"type": "Point", "coordinates": [152.55937928772883, 2.4152106721837105]}}, {"type": "Feature", "properties": {"norad_id": 43689, "name": "METOP-C", "group": "weather", "lat": -51.26411855593658, "lon": 53.77325766159155, "alt_km": 827.2728795187841, "timestamp": "2025-12-10T23:33:12.473328+00:00", "meta": {"OBJECT_NAME": "METOP-C", "OBJECT_ID": "2018-087A", "EPOCH": "2025-12-10T13:39:44.396640", "MEAN_MOTION": 14.21510557, "ECCENTRICITY": 0.00014346, "INCLINATION": 98.6933, "RA_OF_ASC_NODE": 42.3721, "ARG_OF_PERICENTER": 46.3115, "MEAN_ANOMALY": 313.8181, "EPHEMERIS_TYPE": 0, "CLASSIFICATION_TYPE": "U", "NORAD_CAT_ID": 43689, "ELEMENT_SET_NO": 999, "REV_AT_EPOCH": 36803, "BSTAR": 0.00011958964, "MEAN_MOTION_DOT": 2.18e-06, "MEAN_MOTION_DDOT": 0}, "tle": {"line1": "1 43689U 18087A   25344.56926385  .00000218  00000+0  11959-3 0  9994", "line2": "2 43689  98.6933  42.3721 0001434  46.3115 313.8181 14.21510557368037"}}, "geometry": {"type": "Point", "coordinates": [53.77325766159155, -51.26411855593658]}}, {"type": "Feature", "properties": {"norad_id": 43823, "name": "GEO-KOMPSAT-2A", "group": "weather", "lat": 0.024719878589837468, "lon": -158.49582691598562, "alt_km": 35786.359834182986, "timestamp": "2025-12-10T23:33:12.473338+00:00", "meta": {"OBJECT_NAME": "GEO-KOMPSAT-2A", "OBJECT_ID": "2018-100A", "EPOCH": "2025-12-09T23:29:38.510880", "MEAN_MOTION": 1.00269688, "ECCENTRICITY": 1.166e-05, "INCLINATION": 0.0417, "RA_OF_ASC_NODE": 144.825, "ARG_OF_PERICENTER": 34.8694, "MEAN_ANOMALY": 19.9414, "EPHEMERIS_TYPE": 0, "CLASSIFICATION_TYPE": "U", "NORAD_CAT_ID": 43823, "ELEMENT_SET_NO": 999, "REV_AT_EPOCH": 2573, "BSTAR": 0, "MEAN_MOTION_DOT": -3.41e-06, "MEAN_MOTION_DDOT": 0}, "tle": {"line1": "1 43823U 18100A   25343.97891795 -.00000341  00000+0  00000+0 0  9999", "line2": "2 43823   0.0417 144.8250 0000116  34.8694  19.9414  1.00269688 25735"}}, "geometry": {"type": "Point", "coordinates": [-158.49582691598562, 0.024719878589837468]}}, {"type": "Feature", "properties": {"norad_id": 44387, "name": "METEOR-M2 2", "group": "weather", "lat": 4.0721424620503885, "lon": -35.95084273636001, "alt_km": 813.9410037637454, "timestamp": "2025-12-10T23:33:12.473348+00:00", "meta": {"OBJECT_NAME": "METEOR-M2 2", "OBJECT_ID": "2019-038A", "EPOCH": "2025-12-10T13:25:05.421792", "MEAN_MOTION": 14.24290285, "ECCENTRICITY": 0.00011604, "INCLINATION": 98.8973, "RA_OF_ASC_NODE": 324.2607, "ARG_OF_PERICENTER": 151.8622, "MEAN_ANOMALY": 208.2619, "EPHEMERIS_TYPE": 0, "CLASSIFICATION_TYPE": "U", "NORAD_CAT_ID": 44387, "ELEMENT_SET_NO": 999, "REV_AT_EPOCH": 33444, "BSTAR": 0.00017698764, "MEAN_MOTION_DOT": 3.63e-06, "MEAN_MOTION_DDOT": 0}, "tle": {"line1": "1 44387U 19038A   25344.55909053  .00000363  00000+0  17699-3 0  9997", "line2": "2 44387  98.8973 324.2607 0001160 151.8622 208.2619 14.24290285334442"}}, "geometry": {"type": "Point", "coordinates": [-35.95084273636001, 4.0721424620503885]}}, {"type": "Feature", "properties": {"norad_id": 47719, "name": "ARKTIKA-M 1", "group": "weather", "lat": 44.41541492085041, "lon": -125.41041152626921, "alt_km": 22543.313112278902, "timestamp": "2025-12-10T23:33:12.473367+00:00", "meta": {"OBJECT_NAME": "ARKTIKA-M 1", "OBJECT_ID": "2021-016A", "EPOCH": "2025-12-09T14:03:23.859648", "MEAN_MOTION": 2.00631311, "ECCENTRICITY": 0.7202538, "INCLINATION": 63.1769, "RA_OF_ASC_NODE": 84.4506, "ARG_OF_PERICENTER": 269.1116, "MEAN_ANOMALY": 15.6235, "EPHEMERIS_TYPE": 0, "CLASSIFICATION_TYPE": "U", "NORAD_CAT_ID": 47719, "ELEMENT_SET_NO": 999, "REV_AT_EPOCH": 3498, "BSTAR": 0, "MEAN_MOTION_DOT": -6.1e-07, "MEAN_MOTION_DDOT": 0}, "tle": {"line1": "1 47719U 21016A   25343.58569282 -.00000061  00000+0  00000+0 0  9996", "line2": "2 47719  63.1769  84.4506 7202538 269.1116  15.6235  2.00631311 34985"}}, "geometry": {"type": "Point", "coordinates": [-125.41041152626921, 44.41541492085041]}}, {"type": "Feature", "properties": {"norad_id": 49008, "name": "FENGYUN 3E", "group": "weather", "lat": -8.565868386056811, "lon": -13.148204888966387, "alt_km": 829.5501226750621, "timestamp": "2025-12-10T23:33:12.473379+00:00", "meta": {"OBJECT_NAME": "FENGYUN 3E", "OBJECT_ID": "2021-062A", "EPOCH": "2025-12-10T13:26:48.368256", "MEAN_MOTION": 14.19880039, "ECCENTRICITY": 5.992e-05, "INCLINATION": 98.7475, "RA_OF_ASC_NODE": 345.1068, "ARG_OF_PERICENTER": 285.4614, "MEAN_ANOMALY": 74.6496, "EPHEMERIS_TYPE": 0, "CLASSIFICATION_TYPE": "U", "NORAD_CAT_ID": 49008, "ELEMENT_SET_NO": 999, "REV_AT_EPOCH": 22981, "BSTAR": 0.00014920959, "MEAN_MOTION_DOT": 2.73e-06, "MEAN_MOTION_DDOT": 0}, "tle": {"line1": "1 49008U 21062A   25344.56028204  .00000273  00000+0  14921-3 0  9998", "line2": "2 49008  98.7475 345.1068 0000599 285.4614  74.6496 14.19880039229814"}}, "geometry": {"type": "Point", "coordinates": [-13.148204888966387, -8.565868386056811]}}, {"type": "Feature", "properties": {"norad_id": 51850, "name": "GOES 18", "group": "weather", "lat": -0.0031230167373272498, "lon": -63.75559257217445, "alt_km": 35783.156018844595, "timestamp": "2025-12-10T23:33:12.473390+00:00", "meta": {"OBJECT_NAME": "GOES 18", "OBJECT_ID": "2022-021A", "EPOCH": "2025-12-10T13:22:25.194720", "MEAN_MOTION": 1.00271591, "ECCENTRICITY": 7.055e-05, "INCLINATION": 0.0068, "RA_OF_ASC_NODE": 261.5315, "ARG_OF_PERICENTER": 43.386, "MEAN_ANOMALY": 198.2167, "EPHEMERIS_TYPE": 0, "CLASSIFICATION_TYPE": "U", "NORAD_CAT_ID": 51850, "ELEMENT_SET_NO": 999, "REV_AT_EPOCH": 470, "BSTAR": 0, "MEAN_MOTION_DOT": 1.01e-06, "MEAN_MOTION_DDOT": 0}, "tle": {"line1": "1 51850U 22021A   25344.55723605  .00000101  00000+0  00000+0 0  9997", "line2": "2 51850   0.0068 261.5315 0000705  43.3860 198.2167  1.00271591  4705"}}, "geometry": {"type": "Point", "coordinates": [-63.75559257217445, -0.0031230167373272498]}}]}